{
  "schema": "int-temerity-real-tle-snapshot/v1",
  "source": "celestrak",
  "group": "STARLINK",
  "format": "celestrak-gp-json",
  "source_url": "https://celestrak.org/NORAD/elements/gp.php?NAME=STARLINK&FORMAT=JSON",
  "downloaded_at": "2026-07-03T12:25:16.552Z",
  "generated_at": "2026-07-03T12:25:35.465Z",
  "fingerprint": "eb0f9db4",
  "shell_id": "starlink-real-43deg-490km",
  "catalog_count": 10717,
  "shell_count": 3264,
  "selected_count": 1584,
  "mean_altitude_km": 490.23,
  "mean_inclination_deg": 43.0019,
  "mean_mean_motion_rev_per_day": 15.27566421,
  "layout": {
    "planes": 72,
    "satellites_per_plane": 22,
    "selection_strategy": "largest-shell-raan-clusters-even-slot-sampling",
    "raan_cluster_threshold_deg": 2.5,
    "selected_shell_key": "43.0deg-500km"
  },
  "satellites": [
    {
      "satellite_id": "P55-S14",
      "norad_id": 66329,
      "satellite_name": "STARLINK-35505",
      "cospar_id": "2025-253L",
      "shell_id": "starlink-real-43deg-490km",
      "plane_id": 54,
      "slot_id": 13,
      "epoch": "2026-07-02T16:46:44.495040",
      "inclination": 43.001,
      "raan": 283.00070000000005,
      "eccentricity": 0.0003893,
      "argument_of_perigee": 275.4085,
      "mean_anomaly": 84.63229999999999,
      "mean_motion": 15.27597308,
      "bstar": 0.0010482,
      "status": "active",
      "raw_omm": {
        "OBJECT_NAME": "STARLINK-35505",
        "OBJECT_ID": "2025-253L",
        "EPOCH": "2026-07-02T16:46:44.495040",
        "MEAN_MOTION": 15.27597308,
        "ECCENTRICITY": 0.0003893,
        "INCLINATION": 43.001,
        "RA_OF_ASC_NODE": 283.0007,
        "ARG_OF_PERICENTER": 275.4085,
        "MEAN_ANOMALY": 84.6323,
        "EPHEMERIS_TYPE": 0,
        "CLASSIFICATION_TYPE": "U",
        "NORAD_CAT_ID": 66329,
        "ELEMENT_SET_NO": 999,
        "REV_AT_EPOCH": 3783,
        "BSTAR": 0.0010482,
        "MEAN_MOTION_DOT": 0.00028715,
        "MEAN_MOTION_DDOT": 0
      },
      "source": "celestrak",
      "source_url": "https://celestrak.org/NORAD/elements/gp.php?NAME=STARLINK&FORMAT=JSON",
      "catalog_fingerprint": "eb0f9db4"
    },
    {
      "satellite_id": "P55-S15",
      "norad_id": 56523,
      "satellite_name": "STARLINK-6328",
      "cospar_id": "2023-065W",
      "shell_id": "starlink-real-43deg-490km",
      "plane_id": 54,
      "slot_id": 14,
      "epoch": "2026-07-02T18:17:18.744000",
      "inclination": 43.0002,
      "raan": 283.02819999999997,
      "eccentricity": 0.0001364,
      "argument_of_perigee": 267.93769999999995,
      "mean_anomaly": 92.1318,
      "mean_motion": 15.2757433,
      "bstar": -0.0000094981,
      "status": "active",
      "raw_omm": {
        "OBJECT_NAME": "STARLINK-6328",
        "OBJECT_ID": "2023-065W",
        "EPOCH": "2026-07-02T18:17:18.744000",
        "MEAN_MOTION": 15.2757433,
        "ECCENTRICITY": 0.0001364,
        "INCLINATION": 43.0002,
        "RA_OF_ASC_NODE": 283.0282,
        "ARG_OF_PERICENTER": 267.9377,
        "MEAN_ANOMALY": 92.1318,
        "EPHEMERIS_TYPE": 0,
        "CLASSIFICATION_TYPE": "U",
        "NORAD_CAT_ID": 56523,
        "ELEMENT_SET_NO": 999,
        "REV_AT_EPOCH": 17419,
        "BSTAR": -0.0000094981,
        "MEAN_MOTION_DOT": -0.00000523,
        "MEAN_MOTION_DDOT": 0
      },
      "source": "celestrak",
      "source_url": "https://celestrak.org/NORAD/elements/gp.php?NAME=STARLINK&FORMAT=JSON",
      "catalog_fingerprint": "eb0f9db4"
    },
    {
      "satellite_id": "P55-S16",
      "norad_id": 66336,
      "satellite_name": "STARLINK-35404",
      "cospar_id": "2025-253T",
      "shell_id": "starlink-real-43deg-490km",
      "plane_id": 54,
      "slot_id": 15,
      "epoch": "2026-07-02T15:03:20.807424",
      "inclination": 42.9987,
      "raan": 283.3202,
      "eccentricity": 0.0001418,
      "argument_of_perigee": 284.0825,
      "mean_anomaly": 75.98680000000002,
      "mean_motion": 15.27563652,
      "bstar": 0.00058092,
      "status": "active",
      "raw_omm": {
        "OBJECT_NAME": "STARLINK-35404",
        "OBJECT_ID": "2025-253T",
        "EPOCH": "2026-07-02T15:03:20.807424",
        "MEAN_MOTION": 15.27563652,
        "ECCENTRICITY": 0.0001418,
        "INCLINATION": 42.9987,
        "RA_OF_ASC_NODE": 283.3202,
        "ARG_OF_PERICENTER": 284.0825,
        "MEAN_ANOMALY": 75.9868,
        "EPHEMERIS_TYPE": 0,
        "CLASSIFICATION_TYPE": "U",
        "NORAD_CAT_ID": 66336,
        "ELEMENT_SET_NO": 999,
        "REV_AT_EPOCH": 3782,
        "BSTAR": 0.00058092,
        "MEAN_MOTION_DOT": 0.0001575,
        "MEAN_MOTION_DDOT": 0
      },
      "source": "celestrak",
      "source_url": "https://celestrak.org/NORAD/elements/gp.php?NAME=STARLINK&FORMAT=JSON",
      "catalog_fingerprint": "eb0f9db4"
    },
    {
      "satellite_id": "P55-S17",
      "norad_id": 56524,
      "satellite_name": "STARLINK-6323",
      "cospar_id": "2023-065X",
      "shell_id": "starlink-real-43deg-490km",
      "plane_id": 54,
      "slot_id": 16,
      "epoch": "2026-07-02T16:33:54.067104",
      "inclination": 43.0023,
      "raan": 283.3509,
      "eccentricity": 0.0001439,
      "argument_of_perigee": 267.2129,
      "mean_anomaly": 92.85579999999999,
      "mean_motion": 15.27577624,
      "bstar": 0.000016063,
      "status": "active",
      "raw_omm": {
        "OBJECT_NAME": "STARLINK-6323",
        "OBJECT_ID": "2023-065X",
        "EPOCH": "2026-07-02T16:33:54.067104",
        "MEAN_MOTION": 15.27577624,
        "ECCENTRICITY": 0.0001439,
        "INCLINATION": 43.0023,
        "RA_OF_ASC_NODE": 283.3509,
        "ARG_OF_PERICENTER": 267.2129,
        "MEAN_ANOMALY": 92.8558,
        "EPHEMERIS_TYPE": 0,
        "CLASSIFICATION_TYPE": "U",
        "NORAD_CAT_ID": 56524,
        "ELEMENT_SET_NO": 999,
        "REV_AT_EPOCH": 17418,
        "BSTAR": 0.000016063,
        "MEAN_MOTION_DOT": 0.0000018,
        "MEAN_MOTION_DDOT": 0
      },
      "source": "celestrak",
      "source_url": "https://celestrak.org/NORAD/elements/gp.php?NAME=STARLINK&FORMAT=JSON",
      "catalog_fingerprint": "eb0f9db4"
    },
    {
      "satellite_id": "P55-S18",
      "norad_id": 66332,
      "satellite_name": "STARLINK-35322",
      "cospar_id": "2025-253P",
      "shell_id": "starlink-real-43deg-490km",
      "plane_id": 54,
      "slot_id": 17,
      "epoch": "2026-07-02T16:30:07.839936",
      "inclination": 43.0008,
      "raan": 282.9171,
      "eccentricity": 0.0001437,
      "argument_of_perigee": 269.07230000000004,
      "mean_anomaly": 90.9964,
      "mean_motion": 15.27589222,
      "bstar": 0.00062331,
      "status": "active",
      "raw_omm": {
        "OBJECT_NAME": "STARLINK-35322",
        "OBJECT_ID": "2025-253P",
        "EPOCH": "2026-07-02T16:30:07.839936",
        "MEAN_MOTION": 15.27589222,
        "ECCENTRICITY": 0.0001437,
        "INCLINATION": 43.0008,
        "RA_OF_ASC_NODE": 282.9171,
        "ARG_OF_PERICENTER": 269.0723,
        "MEAN_ANOMALY": 90.9964,
        "EPHEMERIS_TYPE": 0,
        "CLASSIFICATION_TYPE": "U",
        "NORAD_CAT_ID": 66332,
        "ELEMENT_SET_NO": 999,
        "REV_AT_EPOCH": 3783,
        "BSTAR": 0.00062331,
        "MEAN_MOTION_DOT": 0.00016934,
        "MEAN_MOTION_DDOT": 0
      },
      "source": "celestrak",
      "source_url": "https://celestrak.org/NORAD/elements/gp.php?NAME=STARLINK&FORMAT=JSON",
      "catalog_fingerprint": "eb0f9db4"
    },
    {
      "satellite_id": "P55-S19",
      "norad_id": 66322,
      "satellite_name": "STARLINK-35292",
      "cospar_id": "2025-253D",
      "shell_id": "starlink-real-43deg-490km",
      "plane_id": 54,
      "slot_id": 18,
      "epoch": "2026-07-02T14:50:23.738784",
      "inclination": 43.0013,
      "raan": 283.2602999999999,
      "eccentricity": 0.0001778,
      "argument_of_perigee": 280.47659999999996,
      "mean_anomaly": 79.58850000000001,
      "mean_motion": 15.2757683,
      "bstar": 0.00087349,
      "status": "active",
      "raw_omm": {
        "OBJECT_NAME": "STARLINK-35292",
        "OBJECT_ID": "2025-253D",
        "EPOCH": "2026-07-02T14:50:23.738784",
        "MEAN_MOTION": 15.2757683,
        "ECCENTRICITY": 0.0001778,
        "INCLINATION": 43.0013,
        "RA_OF_ASC_NODE": 283.2603,
        "ARG_OF_PERICENTER": 280.4766,
        "MEAN_ANOMALY": 79.5885,
        "EPHEMERIS_TYPE": 0,
        "CLASSIFICATION_TYPE": "U",
        "NORAD_CAT_ID": 66322,
        "ELEMENT_SET_NO": 999,
        "REV_AT_EPOCH": 3782,
        "BSTAR": 0.00087349,
        "MEAN_MOTION_DOT": 0.0002385,
        "MEAN_MOTION_DDOT": 0
      },
      "source": "celestrak",
      "source_url": "https://celestrak.org/NORAD/elements/gp.php?NAME=STARLINK&FORMAT=JSON",
      "catalog_fingerprint": "eb0f9db4"
    }
  ]
}